CCSDS_OMM_VERS,COMMENT,CREATION_DATE,ORIGINATOR,OBJECT_NAME,OBJECT_ID,CENTER_NAME,REF_FRAME,TIME_SYSTEM,MEAN_ELEMENT_THEORY,EPOCH,MEAN_MOTION,ECCENTRICITY,INCLINATION,RA_OF_ASC_NODE,ARG_OF_PERICENTER,MEAN_ANOMALY,EPHEMERIS_TYPE,CLASSIFICATION_TYPE,NORAD_CAT_ID,ELEMENT_SET_NO,REV_AT_EPOCH,BSTAR,MEAN_MOTION_DOT,MEAN_MOTION_DDOT,SEMIMAJOR_AXIS,PERIOD,APOAPSIS,PERIAPSIS,OBJECT_TYPE,RCS_SIZE,COUNTRY_CODE,LAUNCH_DATE,SITE,DECAY_DATE,FILE,GP_ID,TLE_LINE0,TLE_LINE1,TLE_LINE2,NORAD_KEY,JCAT,DeepCat,Satcat,Piece,Active,Type,Name,LDate,Parent,Owner,State,SDate,ExpandedStatus,DDate,ODate,Period,Perigee,PF,Apogee,AF,Inc,IF,OpOrbit,SATCAT_KEY
3.0,GENERATED VIA SPACE-TRACK.ORG API,2026-05-06T14:56:52,18 SPCS,TELKOM 1,1999-042A,EARTH,TEME,UTC,SGP4,2026-05-06T10:05:12.857280,1.00242667,0.0015818,7.5776,66.765,263.7306,122.8092,0,U,25880,999,9797,0.00000000000000,-0.00000101,0.0000000000000,42172.897,1436.514,35861.471,35728.053,PAYLOAD,LARGE,INDO,1999-08-12,FRGUI,,5177574,322307608,0 TELKOM 1,1 25880U 99042A   26126.42028770 -.00000101  00000-0  00000+0 0  9996,2 25880   7.5776  66.7650 0015818 263.7306 122.8092  1.00242667 97971,25880,S25880,-,25880,1999-042A,P,P,Telkom 1,1999 Aug 12,S25881,TELK,ID,1999 Aug 12 2312,In Earth orbit,-,2026 May  4 ,    1436.511 ,   35727, ,   35861, ,  7.57 , ,GEO/ID,25880
3.0,GENERATED VIA SPACE-TRACK.ORG API,2026-05-06T10:08:52,18 SPCS,INTELSAT 903,2002-016A,EARTH,TEME,UTC,SGP4,2026-05-06T05:09:45.147168,0.99021643,0.00045465,7.6105,67.1134,221.7589,134.3308,0,U,27403,999,4497,0.00000000000000,-0.00000208,0.0000000000000,42518.874,1454.228,36160.07,36121.408,PAYLOAD,LARGE,ITSO,2002-03-30,TTMTR,,5176958,322266724,0 INTELSAT 903,1 27403U 02016A   26126.21510587 -.00000208  00000-0  00000-0 0  9992,2 27403   7.6105  67.1134 0004547 221.7589 134.3308  0.99021643 44973,27403,S27403,-,27403,2002-016A,P,P      G,INTELSAT 903,2002 Mar 30,S27404,SESINTU,US,2002 Mar 31 0008,In Earth orbit,-,2026 May  5 ,    1454.220 ,   36121, ,   36160, ,  7.61 , ,GEO/ID,27403
3.0,GENERATED VIA SPACE-TRACK.ORG API,2026-05-06T14:56:52,18 SPCS,INTELSAT 805,1998-037A,EARTH,TEME,UTC,SGP4,2026-05-06T11:34:19.119072,0.99477004,0.0009961,7.7829,66.2761,172.2402,189.4353,0,U,25371,999,10195,0.00000000000000,0.00000064,0.0000000000000,42389.02,1447.571,36053.109,35968.661,PAYLOAD,LARGE,ITSO,1998-06-18,AFETR,,5177559,322306920,0 INTELSAT 805,1 25371U 98037A   26126.48216573  .00000064  00000-0  00000+0 0  9997,2 25371   7.7829  66.2761 0009961 172.2402 189.4353  0.99477004101953,25371,S25371,-,25371,1998-037A,P,P,INTELSAT 805,1998 Jun 18,S25372,SESINTU,US,1998 Jun 18 2318,In Earth orbit,-,2026 May  5 ,    1447.579 ,   35968, ,   36053, ,  7.78 , ,GEO/ID,25371
3.0,GENERATED VIA SPACE-TRACK.ORG API,2026-05-06T10:08:52,18 SPCS,ANIK A3 (TELESAT-3),1975-038A,EARTH,TEME,UTC,SGP4,2026-05-06T04:41:32.851968,1.00053646,0.00018021,7.7887,303.0742,62.7823,311.473,0,U,7790,999,12954,0.00000000000000,0.00000103,0.0000000000000,42225.995,1439.228,35855.47,35840.251,PAYLOAD,LARGE,CA,1975-05-07,AFETR,,5176958,322260925,0 ANIK A3 (TELESAT-3),1 07790U 75038A   26126.19551912  .00000103  00000-0  00000-0 0  9990,2 07790   7.7887 303.0742 0001802  62.7823 311.4730  1.00053646129545,7790,S07790,-,07790,1975-038A,P,P,Anik A3,1975 May  7,S07794,TCANL,CA,1975 May  8 0001,In Earth orbit,-,2026 May  5 ,    1439.235 ,   35840, ,   35855, ,  7.79 , ,GEO/ID,7790
3.0,GENERATED VIA SPACE-TRACK.ORG API,2026-05-06T14:46:56,18 SPCS,OPS 6392 (FLTSATCOM 2),1979-038A,EARTH,TEME,UTC,SGP4,2026-05-06T06:15:20.274048,0.9854593,0.0017283,7.814,302.8634,81.1255,285.9397,0,U,11353,999,16997,0.00000000000000,-0.00000200,0.0000000000000,42655.599,1461.248,36351.186,36203.742,PAYLOAD,LARGE,US,1979-05-04,AFETR,,5177213,322299024,0 OPS 6392 (FLTSATCOM 2),1 11353U 79038A   26126.26065132 -.00000200  00000-0  00000+0 0  9994,2 11353   7.8140 302.8634 0017283  81.1255 285.9397  0.98545930169972,11353,S11353,-,11353,1979-038A,P,P,FLTSATCOM F2,1979 May  4,A03071,SPAWAR/SFSSC,US,1979 May  4 1926,In Earth orbit,-,2026 May  5 ,    1461.249 ,   36203, ,   36351, ,  7.82 , ,GEO/ID,11353
3.0,GENERATED VIA SPACE-TRACK.ORG API,2026-05-06T10:08:52,18 SPCS,AMC-9 (GE-12),2003-024A,EARTH,TEME,UTC,SGP4,2026-05-06T01:16:50.813760,0.99033121,0.00187955,7.8159,66.2134,347.2794,215.3163,0,U,27820,999,8357,0.00000000000000,-0.00000026,0.0000000000000,42515.589,1454.059,36217.364,36057.544,PAYLOAD,LARGE,SES,2003-06-06,TTMTR,,5176958,322266334,0 AMC-9 (GE-12),1 27820U 03024A   26126.05336590 -.00000026  00000-0  00000-0 0  9995,2 27820   7.8159  66.2134 0018795 347.2794 215.3163  0.99033121 83571,27820,S27820,-,27820,2003-024A,P,P,AMC 9,2003 Jun  6,S28998,SESSAP,US,2003 Jun  7 0709,In Earth orbit,-,2026 May  4 ,    1454.067 ,   36057, ,   36217, ,  7.81 , ,GEO/ID,27820
3.0,GENERATED VIA SPACE-TRACK.ORG API,2026-05-06T10:08:52,18 SPCS,EKRAN 11,1983-100A,EARTH,TEME,UTC,SGP4,2026-05-05T22:40:40.593792,1.00288818,0.00029028,7.8604,304.8351,357.0522,2.8566,0,U,14377,999,4695,0.00000000000000,-0.00000315,0.0000000000000,42159.958,1435.853,35794.061,35769.584,PAYLOAD,LARGE,CIS,1983-09-29,TTMTR,,5176958,322262275,0 EKRAN 11,1 14377U 83100A   26125.94491428 -.00000315  00000-0  00000-0 0  9991,2 14377   7.8604 304.8351 0002903 357.0522   2.8566  1.00288818 46958,14377,S14377,-,14377,1983-100A,P,P,Ekran,1983 Sep 29,S14394,KS,SU,1983 Sep 30 0014?,In Earth orbit,-,2026 May  4 ,    1435.845 ,   35769, ,   35794, ,  7.86 , ,GEO/I,14377
3.0,GENERATED VIA SPACE-TRACK.ORG API,2026-05-06T10:08:52,18 SPCS,INTELSAT 4A-F1,1975-091A,EARTH,TEME,UTC,SGP4,2026-05-06T04:41:25.363680,0.99931684,0.0003781,7.9588,304.5986,265.9806,106.3092,0,U,8330,999,12105,0.00000000000000,0.00000082,0.0000000000000,42260.345,1440.984,35898.189,35866.231,PAYLOAD,LARGE,ITSO,1975-09-26,AFETR,,5176958,322260984,0 INTELSAT 4A-F1,1 08330U 75091A   26126.19543245  .00000082  00000-0  00000-0 0  9996,2 08330   7.9588 304.5986 0003781 265.9806 106.3092  0.99931684121052,8330,S08330,-,08330,1975-091A,P,P,INTELSAT IVA F1,1975 Sep 26,S08331,SESINTU,US,1975 Sep 26 0045,In Earth orbit,-,2026 May  5 ,    1440.991 ,   35866, ,   35898, ,  7.96 , ,GEO/ID,8330
3.0,GENERATED VIA SPACE-TRACK.ORG API,2026-05-06T15:06:46,18 SPCS,INTELSAT 1R (PAS 1R),2000-072A,EARTH,TEME,UTC,SGP4,2026-05-06T06:07:38.607744,0.98971023,0.0008839,7.9744,65.2214,293.8358,317.5057,0,U,26608,999,4081,0.00000000000000,-0.00000164,0.0000000000000,42533.371,1454.971,36192.831,36117.641,PAYLOAD,LARGE,US,2000-11-16,FRGUI,,5177721,322311262,0 INTELSAT 1R (PAS 1R),1 26608U 00072A   26126.25530796 -.00000164  00000-0  00000+0 0  9996,2 26608   7.9744  65.2214 0008839 293.8358 317.5057  0.98971023 40811,26608,S26608,-,26608,2000-072A,P,P,Intelsat IS-1R,2000 Nov 16,S26613,SESINTU,US,2000 Nov 16 0136,In Earth orbit,-,2026 May  5 ,    1454.975 ,   36117, ,   36193, ,  7.97 , ,GEO/ID,26608
3.0,GENERATED VIA SPACE-TRACK.ORG API,2026-05-06T14:46:56,18 SPCS,PALAPA 1,1976-066A,EARTH,TEME,UTC,SGP4,2026-05-06T11:47:25.363392,1.0006846,0.0002445,7.9791,305.3244,230.0665,301.5919,0,U,9009,999,12752,0.00000000000000,-0.00000056,0.0000000000000,42221.828,1439.015,35854.016,35833.37,PAYLOAD,LARGE,INDO,1976-07-08,AFETR,,5177177,322298054,0 PALAPA 1,1  9009U 76066A   26126.49126578 -.00000056  00000-0  00000+0 0  9993,2  9009   7.9791 305.3244 0002445 230.0665 301.5919  1.00068460127521,9009,S09009,-,09009,1976-066A,P,P,Palapa A1,1976 Jul  8,S09017,TELK,ID,1976 Jul  8 2356,In Earth orbit,-,2026 May  5 ,    1439.015 ,   35833, ,   35853, ,  7.98 , ,GEO/ID,9009
3.0,GENERATED VIA SPACE-TRACK.ORG API,2026-05-06T14:46:56,18 SPCS,INTELSAT 4A-F2,1976-010A,EARTH,TEME,UTC,SGP4,2026-05-06T11:18:01.888416,0.99683235,0.0005645,7.9881,304.1895,312.6304,40.6936,0,U,8620,999,62019,0.00000000000000,-0.00000065,0.0000000000000,42330.535,1444.576,35976.296,35928.505,PAYLOAD,LARGE,ITSO,1976-01-29,AFETR,,5177172,322297995,0 INTELSAT 4A-F2,1  8620U 76010A   26126.47085519 -.00000065  00000-0  00000+0 0  9997,2  8620   7.9881 304.1895 0005645 312.6304  40.6936  0.99683235620191,8620,S08620,-,08620,1976-010A,P,P,INTELSAT IVA F2,1976 Jan 29,S08621,SESINTU,US,1976 Jan 30 0024,In Earth orbit,-,2026 May  5 ,    1444.573 ,   35928, ,   35976, ,  7.99 , ,GEO/ID,8620
3.0,GENERATED VIA SPACE-TRACK.ORG API,2026-05-06T10:08:52,18 SPCS,COMSTAR 2,1976-073A,EARTH,TEME,UTC,SGP4,2026-05-06T04:39:18.067104,0.99985315,9.883e-05,8.0089,305.4367,54.9173,308.5822,0,U,9047,999,4679,0.00000000000000,0.00000046,0.0000000000000,42245.232,1440.212,35871.272,35862.922,PAYLOAD,LARGE,US,1976-07-22,AFETR,,5176958,322261064,0 COMSTAR 2,1 09047U 76073A   26126.19395911  .00000046  00000-0  00000-0 0  9998,2 09047   8.0089 305.4367 0000988  54.9173 308.5822  0.99985315 46792,9047,S09047,-,09047,1976-073A,P,P,Comstar 202,1976 Jul 22,S09329,IGC,US,1976 Jul 22 2232,In Earth orbit,-,2026 May  5 ,    1440.217 ,   35863, ,   35871, ,  8.01 , ,GEO/ID,9047
3.0,GENERATED VIA SPACE-TRACK.ORG API,2026-05-06T02:32:52,18 SPCS,AMC-3 (GE-3),1997-050A,EARTH,TEME,UTC,SGP4,2026-05-05T17:58:30.212256,1.00271302,0.0003232,8.0429,64.5634,339.846,16.8361,0,U,24936,999,5200,0.00000000000000,-0.00000254,0.0000000000000,42164.867,1436.104,35800.36,35773.105,PAYLOAD,LARGE,SES,1997-09-04,AFETR,,5176277,322216542,0 AMC-3 (GE-3),1 24936U 97050A   26125.74896079 -.00000254  00000-0  00000-0 0  9993,2 24936   8.0429  64.5634 0003232 339.8460  16.8361  1.00271302 52008,24936,S24936,-,24936,1997-050A,P,P,AMC 3,1997 Sep  4,S24937,SESSAP,US,1997 Sep  4 1233?,In Earth orbit,-,2026 May  5 ,    1436.101 ,   35773, ,   35800, ,  8.04 , ,GEO/I,24936
